ONEWEB-0504             
1 54122U 22138K   25027.73351424  .00000069  00000+0  13969-3 0  9990
2 54122  87.9140  45.4423 0001505  98.3007 261.8296 13.19722686110163
ONEWEB-0505             
1 54123U 22138L   25027.65453627  .00000058  00000+0  11176-3 0  9996
2 54123  87.9139  45.4500 0001566 112.1692 247.9607 13.19723499110131
ONEWEB-0506             
1 54124U 22138M   25027.55347395  .00002774  00000+0  68945-2 0  9992
2 54124  87.9143  45.4663 0001583  96.0701 264.0613 13.19714148110113
ONEWEB-0507             
1 54125U 22138N   25027.57398276  .00000049  00000+0  89999-4 0  9996
2 54125  87.9149  45.5029 0001855 100.7118 259.4223 13.19723586110160
ONEWEB-0508             
1 54126U 22138P   25027.57083884  .00000050  00000+0  92643-4 0  9995
2 54126  87.9145  45.4909 0001915 106.4010 253.7333 13.19723970110148
ONEWEB-0509             
1 54127U 22138Q   25027.54554447  .00000076  00000+0  15713-3 0  9991
2 54127  87.9139  45.4676 0001750  96.4005 263.7327 13.19728325110112
ONEWEB-0510             
1 54128U 22138R   25027.90944232 -.00000249  00000+0 -64356-3 0  9998
2 54128  87.9262  14.9635 0002065  84.6640 275.4729 13.20769527112580
ONEWEB-0511             
1 54129U 22138S   25027.54239499  .00000108  00000+0  23737-3 0  9991
2 54129  87.9138  45.4727 0001487  87.9260 272.2042 13.19723858110143
